C/2012 Q1 (Kowalski),e,45.1742,184.4393,139.5006,26.20195,0.0073486,0.63601438,38.3912,05/25.0/2026,2000,g  4.0,4.0
# From MPC194129
C/2012 S3 (PANSTARRS),e,112.6466,121.4360,183.8142,81882,0.0000000,0.99997181,0.0000,08/31.9442/2013,2000,g 10.0,4.0
# From MPC194129
C/2012 S4 (PANSTARRS),e,126.4892,173.1708,163.7861,12318,0.0000007,0.99964494,0.0000,06/27.5697/2013,2000,g  8.5,4.0
# From MPC194129
P/2012 T3 (PANSTARRS),e,9.5203,114.1398,196.8258,6.025776,0.0666323,0.60513016,342.5916,05/25.0/2026,2000,g 15.0,4.0
# From MPC194130
C/2012 T4 (McNaught),e,23.9544,99.2680,220.2253,215.4458,0.0003117,0.99079443,0.0000,10/05.3705/2012,2000,g 13.5,4.0
# From MPC194130
C/2012 T5 (Bressi),h,02/20.8382/2013,71.7760,231.0221,317.9078,1.000333,0.318504,2000,13.0,4.0
# From MPC194130
C/2012 T6 (Kowalski),e,33.3653,186.0595,197.9708,14.08397,0.0186473,0.87434511,93.5442,05/25.0/2026,2000,g 15.0,4.0
# From MPC194130
C/2012 U1 (PANSTARRS),e,56.4006,26.9204,70.1241,1647,0.0000147,0.99680943,0.0000,07/09.5825/2014,2000,g  7.5,4.0
# From MPC194130
P/2012 U2 (PANSTARRS),e,10.7514,185.2102,228.5260,7.126026,0.0518123,0.50008462,255.2012,05/25.0/2026,2000,g 12.5,4.0
# From MPC194130
C/2012 V1 (PANSTARRS),e,157.8367,85.8207,123.6733,1760,0.0000134,0.99881688,0.0000,07/25.6387/2013,2000,g 12.0,4.0
# From MPC194130
C/2012 V2 (LINEAR),e,67.6862,262.2497,217.2734,458.1181,0.0001005,0.99682778,0.0000,08/17.4537/2013,2000,g  9.0,4.0
# From MPC194130
C/2012 X1 (LINEAR),e,44.2673,113.4828,131.9914,158.4273,0.0004943,0.98983351,0.0000,02/15.7520/2014,2000,g  4.8,3.6
# From MPC194130
C/2012 X2 (PANSTARRS),e,34.2593,271.0164,215.4317,20.31828,0.0107615,0.76762733,51.6465,05/25.0/2026,2000,g  9.0,4.0
# From MPC194130
C/2012 Y1 (LINEAR),e,20.9293,193.1693,268.7626,37.17192,0.0043489,0.94629691,21.1765,05/25.0/2026,2000,g 15.0,4.0
# From MPC194130
C/2012 Y3 (McNaught),e,73.2249,122.4443,235.7490,28.01832,0.0066457,0.93670973,33.3776,05/25.0/2026,2000,g 11.0,4.0
# From MPC194130
C/2013 A1 (SidingSpring),h,10/27.3627/2014,128.6842,301.1856,2.5541,1.000130,1.392429,2000,8.2,2.4
# From MPC194131
P/2013 AL76 (Catalina),e,144.9430,146.1502,27.1654,6.476773,0.0597952,0.68392531,294.1401,05/25.0/2026,2000,g 16.0,4.0
# From MPC194131
C/2013 B2 (Catalina),e,43.5450,331.7886,156.3070,4756,0.0000030,0.99922129,0.0000,07/04.3243/2013,2000,g 11.0,4.0
# From MPC194131
C/2013 C2 (Tenagra),e,21.3700,247.5693,308.7380,15.87426,0.0155835,0.42616907,61.0928,05/25.0/2026,2000,g  4.0,4.0
# From MPEC 2013-Y32
P/2013 CU129 (PANSTARRS),e,11.8142,45.6026,213.0123,2.904738,0.1990873,0.71544797,221.1205,05/25.0/2026,2000,g 18.0,2.0
# From MPC194131
C/2013 D1 (Holvorcem),e,10.0977,295.1604,252.4817,11.26176,0.0260792,0.78175814,125.0747,05/25.0/2026,2000,g 14.0,4.0
# From MPC194131
C/2013 E1 (McNaught),e,158.7086,133.8753,311.3045,6431,0.0000019,0.99879219,0.0000,06/09.3114/2013,2000,g  5.5,4.0
# From MPC194131
C/2013 E2 (Iwamoto),e,21.8457,182.4799,95.9561,226.0487,0.0002900,0.99365876,0.0000,03/01.3682/2013,2000,g 11.5,4.0
# From MPC194131
C/2013 F1 (Boattini),h,12/07.1598/2012,79.7293,30.2219,91.7876,1.002005,1.837088,2000,13.0,4.0
# From MPC194131
C/2013 F2 (Catalina),e,61.7821,344.1526,122.9193,833.0659,0.0000410,0.99256453,0.0000,04/21.1024/2013,2000,g  7.0,4.0
# From MPC194131
C/2013 F3 (McNaught),e,85.1205,266.1571,18.7881,638.5491,0.0000611,0.99646503,0.0000,05/21.4361/2013,2000,g 12.0,4.0
# From MPC194131
P/2013 G1 (Kowalski),e,5.4560,221.2664,51.3041,6.911259,0.0542461,0.51033537,248.1675,05/25.0/2026,2000,g 11.0,4.0
# From MPC194131
C/2013 G2 (McNaught),e,96.0066,274.4520,293.9113,10741,0.0000009,0.99979979,0.0000,12/06.8655/2012,2000,g 11.5,4.0
# From MPC194132
C/2013 G3 (PANSTARRS),h,11/08.1887/2014,64.5898,208.1224,76.6590,1.001335,3.876190,2000,9.0,4.0
# From MPC194132
P/2013 G4 (PANSTARRS),e,5.9195,339.6191,214.3949,4.432829,0.1056045,0.41008041,151.4164,05/25.0/2026,2000,g 15.0,4.0
# From MPC194132
C/2013 G5 (Catalina),e,40.4149,144.4152,165.7381,1979,0.0000112,0.99952196,0.0000,08/28.8629/2013,2000,g 14.0,4.0
# From MPC194132
C/2013 G6 (Lemmon),e,123.9489,44.5732,215.6756,351.8471,0.0001493,0.99417529,0.0000,07/18.5063/2013,2000,g 13.5,4.0
# From MPC194132
C/2013 G7 (McNaught),e,104.9675,48.4475,218.2853,1549,0.0000162,0.99697997,0.0000,03/13.5438/2014,2000,g  7.5,4.0
# From MPC194132
C/2013 G8 (PANSTARRS),e,27.5443,240.9216,80.4784,4528,0.0000032,0.99885547,0.0000,11/08.4850/2013,2000,g  8.5,4.0
# From MPC194132
C/2013 G9 (Tenagra),e,146.2255,35.8493,204.9743,6238,0.0000020,0.99914693,0.0000,01/10.7924/2015,2000,g  7.0,4.0
# From MPC194132
C/2013 H1 (LaSagra),e,27.0486,85.2034,136.3987,186.5161,0.0003869,0.98580325,0.0000,05/14.5295/2013,2000,g 13.0,4.0
# From MPC194132
C/2013 H2 (Boattini),e,128.2735,262.8266,36.0108,15697,0.0000005,0.99952341,0.0000,01/22.7097/2014,2000,g  6.5,4.0
# From MPC194132
P/2013 J2 (McNaught),e,15.4890,289.2244,37.8633,6.233954,0.0633226,0.65563878,295.1810,05/25.0/2026,2000,g 13.0,4.0
# From MPC194132
C/2013 J3 (McNaught),e,118.2498,200.8253,320.7976,947.1578,0.0000338,0.99582046,0.0000,02/24.4340/2013,2000,g 10.0,4.0
# From MPC194132
C/2013 J5 (Boattini),h,11/29.9723/2012,135.8913,256.8920,19.1455,1.000173,4.885511,2000,10.0,4.0
# From MPC194133
C/2013 J6 (Catalina),e,85.0078,68.6809,125.5449,59.32115,0.0021572,0.95949266,10.3392,05/25.0/2026,2000,g 14.5,4.0
# From MPC194133
C/2013 K1 (Christensen),e,42.0815,126.0479,171.3740,78.19216,0.0014255,0.98766941,0.0000,05/25.4775/2013,2000,g 18.0,4.0
# From MPC194133
C/2013 L2 (Catalina),e,106.6027,286.0077,1.9560,12800,0.0000007,0.99961956,0.0000,05/11.2464/2012,2000,g  8.0,4.0
# From MPC194133
P/2013 N3 (PANSTARRS),e,2.1667,17.5921,323.8354,7.409999,0.0488626,0.59019841,219.4034,05/25.0/2026,2000,g 13.0,4.0
# From MPC194133
C/2013 N4 (Borisov),e,37.1831,322.2705,142.3775,46.80856,0.0030776,0.97449779,0.0000,08/24.8825/2013,2000,g 12.0,4.0
# From MPC194133
P/2013 N5 (PANSTARRS),e,23.3915,187.1251,176.9631,6.803824,0.0555360,0.73100590,261.3323,05/25.0/2026,2000,g 17.0,4.0
# From MPC194133
C/2013 O3 (McNaught),e,102.6758,276.9927,338.0146,708.7100,0.0000522,0.99551742,0.0000,09/10.2007/2013,2000,g 11.5,4.0
# From MPC194133
P/2013 P1 (PANSTARRS),e,18.6800,160.7405,138.0349,8.593875,0.0391220,0.60216955,189.8412,05/25.0/2026,2000,g 12.0,4.0
# From MPC194133
C/2013 P2 (PANSTARRS),e,125.6553,2.0123,104.7195,776.0944,0.0000456,0.99638377,0.0000,02/19.6498/2014,2000,g 11.5,4.0
# From MPC194133
C/2013 P3 (Palomar),h,11/25.0568/2014,93.8430,177.3149,177.4050,1.002098,8.686313,2000,5.5,4.0
# From MPC194133
C/2013 P4 (PANSTARRS),e,4.2601,256.3799,114.0154,14.78334,0.0173399,0.59373033,74.6897,05/25.0/2026,2000,g  7.5,4.0
# From MPC194133
C/2013 PE67 (Catalina-Spacewatch),e,116.4926,325.7666,59.7192,52.36417,0.0026011,0.96455365,11.8333,05/25.0/2026,2000,g 14.0,4.0
# From MPC194134
C/2013 R1 (Lovejoy),e,64.3095,71.0735,66.8473,430.4772,0.0001104,0.99814374,0.0000,12/24.7822/2013,2000,g  7.0,4.0
# From MPC194134
P/2013 R3 (Catalina-PANSTARRS),e,0.8669,341.6499,11.3839,3.028628,0.1869973,0.27875931,148.6146,05/25.0/2026,2000,g 14.0,4.0
# From MPC194134
P/2013 R3-A,e,0.8659,341.5967,11.4699,3.028377,0.1870205,0.27868495,148.7041,05/25.0/2026,2000,g 14.3,4.0
# From MPC194134
P/2013 R3-B,e,0.8676,341.6641,11.4168,3.028625,0.1869975,0.27870204,148.5910,05/25.0/2026,2000,g 14.5,4.0
# From MPC194134
C/2013 S1 (Catalina),e,84.0487,221.3988,166.1402,3372,0.0000050,0.99915694,0.0000,08/01.8886/2013,2000,g 13.0,4.0
# From MPC194134
P/2013 T1 (PANSTARRS),e,24.2676,10.0363,346.1880,5.857179,0.0695299,0.62337336,324.7799,05/25.0/2026,2000,g 16.5,4.0
# From MPC194134
P/2013 T2 (Schwartz),e,9.4471,0.7759,345.5800,3.493407,0.1509490,0.50006199,357.3867,05/25.0/2026,2000,g 16.0,4.0
# From MPC194134
C/2013 TW5 (Spacewatch),e,31.4894,319.5284,190.2836,238.6782,0.0002673,0.97571042,0.0000,08/18.1930/2014,2000,g  7.5,4.0
# From MPC194134
C/2013 U1 (Catalina),e,23.9552,211.0720,143.3192,11.88716,0.0240485,0.79526758,109.9610,05/25.0/2026,2000,g 13.5,4.0
# From MPC194134
C/2013 U2 (Holvorcem),e,43.2252,6.8039,107.7373,495.7906,0.0000893,0.98969080,0.0000,10/31.1092/2014,2000,g  7.5,4.0
# From MPC194135
C/2013 UQ4 (Catalina),e,144.7985,317.7927,23.5022,58.96452,0.0021768,0.98175664,0.0000,07/08.1922/2014,2000,g 13.5,4.0
# From MPC194135
C/2013 US10 (Catalina),h,11/12.0393/2015,148.9256,186.1556,340.1973,1.000156,0.814406,2000,4.4,4.0
# From MPC194135
C/2013 V1 (Boattini),h,04/24.5292/2014,65.4089,72.9317,47.9251,1.000953,1.651009,2000,10.5,4.0
# From MPC194135
C/2013 V2 (Borisov),e,37.9119,48.4788,94.0752,18544,0.0000004,0.99981271,0.0000,10/17.1045/2014,2000,g  7.0,4.0
# From MPC194135
C/2013 V3 (Nevski),e,32.3182,100.7022,339.6357,12.56626,0.0221256,0.89085052,101.4425,05/25.0/2026,2000,g 14.0,4.0
# From MPC194135
C/2013 V4 (Catalina),h,10/10.4839/2015,67.9632,55.5437,40.4796,1.000534,5.186003,2000,6.0,4.0
# From MPC194135
C/2013 V5 (Oukaimeden),e,154.7136,279.5961,315.4589,370.0861,0.0001384,0.99832299,0.0000,10/01.3345/2014,2000,g  9.0,4.0
# From MPC194135
P/2013 W1 (PANSTARRS),e,4.7009,117.8450,1.2741,3.483459,0.1515961,0.59394918,315.2557,05/25.0/2026,2000,g 17.5,4.0
# From MPC194135
C/2013 W2 (PANSTARRS),e,4.8498,178.2779,303.8972,9.614445,0.0330611,0.54787245,138.6392,05/25.0/2026,2000,g 13.5,2.0
# From MPC194135
C/2013 X1 (PANSTARRS),h,04/24.4493/2016,163.0538,132.0352,165.4866,1.000924,1.306293,2000,10.5,2.0
# From MPC194135
C/2013 Y2 (PANSTARRS),e,29.3907,243.6732,308.5168,209.1984,0.0003257,0.99088727,0.0000,06/11.6779/2014,2000,g 12.0,4.0
# From MPC194136
P/2013 YG46 (Spacewatch),e,7.0498,37.4287,254.5664,3.240932,0.1689270,0.48015175,202.4136,05/25.0/2026,2000,g 10.0,4.0
# From MPC194136
P/2014 A2 (Hill),e,24.5650,106.6436,356.2613,5.917354,0.0684720,0.64665146,314.8514,05/25.0/2026,2000,g 15.0,4.0
# From MPC194136
C/2014 A4 (SONEAR),h,09/05.2723/2015,121.3492,29.6685,356.9339,1.000001,4.208857,2000,6.0,4.0
# From MPC194136
